ZHUHAI-1 02 (CAS-4B)    
1 42759U 17034B   23097.62141300  .00011575  00000+0  60066-3 0  9999
2 42759  43.0170 147.5878 0011026 358.1307 140.2615 15.16078310320928
ZHUHAI-1 01 (CAS-4A)    
1 42761U 17034D   23097.50699242  .00011138  00000+0  57761-3 0  9995
2 42761  43.0161 146.7778 0011832   0.5508 135.7010 15.16123845320918
MAX VALIER SAT          
1 42778U 17036P   23097.34363853  .00023734  00000+0  68848-3 0  9996
2 42778  97.1657 133.9861 0008018  12.2921 347.8517 15.35489676321847
RADFXSAT (FOX-1B)       
1 43017U 17073E   23097.46422446  .00008685  00000+0  61964-3 0  9991
2 43017  97.6399 344.6083 0235298 302.8922  54.9847 14.85100447290689
FOX-1D (AO-92)          
1 43137U 18004AC  23097.15129875  .00037026  00000+0  89578-3 0  9997
2 43137  97.3330 175.8226 0005816  48.3589 311.8155 15.41019877291350
DIWATA-2B               
1 43678U 18084H   23097.56357165  .00003204  00000+0  31252-3 0  9992
2 43678  98.0085 240.1675 0010309  41.7982 318.4010 14.93152646241723
ES'HAIL 2               
1 43700U 18090A   23096.53727928  .00000152  00000+0  00000+0 0  9991
2 43700   0.0151 238.8786 0001249 160.1530  14.7746  1.00274767 15961
FOX-1CLIFF (AO-95)      
1 43770U 18099N   23097.15606151  .00005835  00000+0  48504-3 0  9998
2 43770  97.5785 160.6210 0013297  11.2534 348.8984 14.99026658236968
ITASAT 1                
1 43786U 18099AE  23097.41231247  .00004744  00000+0  39711-3 0  9992
2 43786  97.5840 161.9041 0014477   7.9113 352.2335 14.98833605237045
JY1SAT (JO-97)          
1 43803U 18099AX  23097.15717452  .00006507  00000+0  52777-3 0  9996
2 43803  97.5764 161.5866 0013349 356.3622   3.7502 14.99929637237040
UWE-4                   
1 43880U 18111E   23097.52964553  .00008084  00000+0  63139-3 0  9999
2 43880  97.6446   3.8316 0018302  57.3679 302.9308 15.01244399233767
NEXUS (FO-99)           
1 43937U 19003F   23097.04949241  .00046906  00000+0  97627-3 0  9991
2 43937  97.0960 125.4778 0016115 168.3317 191.8310 15.45335752235032
JAISAT-1                
1 44419U 19038F   23097.46301892  .00026793  00000+0  10169-2 0  9992
2 44419  97.6713  77.0309 0015629 179.3602 180.7659 15.26703978207737
DUCHIFAT-3              
1 44854U 19089C   23097.54161978  .00011114  00000+0  77191-3 0  9999
2 44854  36.9639 153.1182 0007680 101.4734  42.2624 15.05005691182187
CAS-6 (TIANQIN 1)       
1 44881U 19093C   23097.49229825  .00001694  00000+0  21807-3 0  9999
2 44881  97.8637 177.1484 0013831 312.7352  47.2682 14.82351025178329
RS-44 & BREEZE-KM R/B   
1 44909U 19096E   23097.31171813  .00000014  00000+0  12893-4 0  9998
2 44909  82.5254  35.0336 0217469 353.0108   6.7973 12.79719716153093
HUSKYSAT-1 (HO-107)     
1 45119U 19071J   23097.21114540  .01728455  25326-2  14286-2 0  9992
2 45119  51.6171  26.9067 0007763 187.8565 172.2331 16.13809393179151
BY70-2                  
1 45857U 20042B   23097.52063035  .00025626  00000+0  28175-2 0  9997
2 45857  97.9274 177.3231 0009334 228.8670 131.1698 14.87556323149024
SALSAT                  
1 46495U 20068K   23097.42511476  .00005861  00000+0  39486-3 0  9997
2 46495  97.7642  44.7461 0015985   7.9638 352.1840 15.06977443138418
RADFXSAT-2 (AO-109)     
1 47311U 21002C   23097.08411257  .00026653  00000+0  77324-3 0  9997
2 47311  60.6825 331.1347 0028160 137.8466 222.4800 15.35061893123352
UVSQ-SAT                
1 47438U 21006AB  23097.15287305  .00017090  00000+0  74782-3 0  9994
2 47438  97.3929 155.3673 0009047 338.6462  21.4396 15.22082802121839
DIY-1 (ARDUIQUBE)       
1 47963U 21022AH  23097.15755504  .00119356  00000+0  30336-2 0  9990
2 47963  97.5055   2.9799 0010627 163.6399 196.5191 15.39105908111591
XW-3 (CAS-9)            
1 50466U 21131B   23097.51817810  .00001008  00000+0  34236-3 0  9990
2 50466  98.5530 179.2861 0004041   9.0206 351.1054 14.38809219 67190
TEVEL-3                 
1 50988U 22002E   23097.47529900  .00024584  00000+0  10701-2 0  9996
2 50988  97.4404 165.0470 0009613 123.3907   2.5087 15.22180356 67993
TEVEL-8                 
1 50989U 22002F   23097.49182925  .00024789  00000+0  10808-2 0  9996
2 50989  97.4428 165.1158 0009629 121.5747   8.2075 15.22122326 67996
TEVEL-5                 
1 50998U 22002Q   23097.45578750  .00025590  00000+0  10902-2 0  9993
2 50998  97.4398 165.3352 0011080 118.2100   8.7174 15.22891466 68017
TEVEL-6                 
1 50999U 22002R   23097.45370641  .00025562  00000+0  10889-2 0  9996
2 50999  97.4394 165.3281 0010998 117.3370   5.9445 15.22896158 68014
TEVEL-1                 
1 51013U 22002AF  23097.61063631  .00024570  00000+0  10705-2 0  9995
2 51013  97.4403 165.1330 0009545 122.3695 341.8096 15.22148865 68017
TEVEL-7                 
1 51062U 22002CG  23097.49313197  .00024827  00000+0  10822-2 0  9995
2 51062  97.4416 165.0913 0009485 121.6391   6.1724 15.22133305 67997
TEVEL-4                 
1 51063U 22002CH  23097.49699352  .00024723  00000+0  10789-2 0  9993
2 51063  97.4421 165.0850 0009502 119.9093   7.4208 15.22093672 67996
TEVEL-2                 
1 51069U 22002CP  23097.47709264  .00024659  00000+0  10734-2 0  9999
2 51069  97.4403 165.0221 0009540 123.1074   2.3848 15.22181927 67997
GREENCUBE               
1 53106U 22080B   23088.05176028 -.00000003  00000+0  00000+0 0  9999
2 53106  70.1795 347.5677 0008286 204.3079 155.7190  6.42557135 16603
RS29S (SXC3-2110 CYCLO*)
1 53373U 22096D   23097.51482844  .00036143  00000+0  10836-2 0  9993
2 53373  97.4202   3.2082 0003487  74.8353  51.1874 15.34392302 36832
RS32S (SXC3-212 MONITO*)
1 53374U 22096E   23097.51816032  .00032777  00000+0  99509-3 0  9998
2 53374  97.4182   3.1821 0003466  68.7354  57.6346 15.34014640 36831
RS34S (SXC3-218 KUZBAS*)
1 53375U 22096F   23097.52852028  .00028540  00000+0  90563-3 0  9999
2 53375  97.4207   3.0391 0003437  69.4764  56.2340 15.32634915 36821
RS23S (SXC3-21 UTMN)    
1 53376U 22096G   23097.50743376  .00029440  00000+0  92164-3 0  9992
2 53376  97.4206   3.0636 0003421  69.6827  52.6678 15.33060677 36821
RS28S (SXC3-214 MIET-A*)
1 53377U 22096H   23097.45892530  .00027053  00000+0  86195-3 0  9999
2 53377  97.4203   2.9782 0003242  67.1437  47.7547 15.32516170 36812
RS26S (KAI-1)           
1 53378U 22096J   23097.50731890  .00022297  00000+0  73329-3 0  9997
2 53378  97.4225   2.9216 0003015  65.1810  57.5631 15.31537281 36818
RS19S (SXC3-219 ISOI)   
1 53381U 22096M   23097.57332587  .00026980  00000+0  84019-3 0  9999
2 53381  97.4202   3.2753 0002720 358.7369 121.3952 15.33249088 36845
RS21S (CUBESX-HSE-2)    
1 53383U 22096P   23097.62147453  .00028876  00000+0  89284-3 0  9998
2 53383  97.4205   3.3597 0003106 357.5485  95.7107 15.33461668 36859
RS30S (SXC3-217 SIREN)  
1 53384U 22096Q   23097.59531220  .00024674  00000+0  78585-3 0  9998
2 53384  97.4215   3.2448 0002680 350.2192  98.0304 15.32548394 36841
RS20S (GEOSCAN-EDELVEIS)
1 53385U 22096R   23097.60841565  .00037897  00000+0  10863-2 0  9992
2 53385  97.4199   3.6704 0003035 356.3906  99.7085 15.35798560 36903
RS33S (SXC3-215 VIZARD) 
1 53386U 22096S   23097.53559205  .00047485  00000+0  12628-2 0  9997
2 53386  97.4187   3.9290 0003400 353.0456 130.9382 15.38078838 36904
CAS-5A (FO-118)         
1 54684U 22167C   23097.53031170  .00017101  00000+0  99159-3 0  9991
2 54684  97.5493 235.7283 0014060 215.0379 210.0355 15.12157118 17998
